     2.10           G: GLONASS NAV DATA                     RINEX VERSION / TYPE
teqc  2015Jun23                         20210620 02:25:47UTCPGM / RUN BY / DATE
Linux 2.4.21-27.ELsmp|Opteron|gcc -static|Linux x86_64|=+   COMMENT
  2021     5    27    9.778887033463D-09                    CORR TO SYSTEM TIME
                                                            END OF HEADER
 7 21  5 28 22 15  0.0-4.240125417709D-05-0.000000000000D+00 7.920000000000D+04
   -1.080551318359D+04 3.196315765381D-01 2.793967723846D-09 0.000000000000D+00
    1.006015917969D+04-2.835657119751D+00 9.313225746155D-10 5.000000000000D+00
   -2.074681884766D+04-1.542079925537D+00 9.313225746155D-10 0.000000000000D+00
21 21  5 28 22 15  0.0-2.123946323991D-04-2.728484105319D-12 7.920000000000D+04
   -2.351286914062D+04 3.528718948364D-01 9.313225746155D-10 0.000000000000D+00
    9.710863769531D+03 1.007623672485D-01-2.793967723846D-09 4.000000000000D+00
    2.031521484375D+03 3.589130401611D+00 9.313225746155D-10 0.000000000000D+00
22 21  5 28 22 15  0.0-1.149652525783D-04-1.818989403546D-12 7.920000000000D+04
   -1.586408007812D+04-1.696332931519D+00 2.793967723846D-09 0.000000000000D+00
    1.402027880859D+04 9.688682556152D-01 0.000000000000D+00-3.000000000000D+00
   -1.417261621094D+04 2.870058059692D+00 0.000000000000D+00 0.000000000000D+00
 8 21  5 28 22 45  0.0-5.922839045525D-05-0.000000000000D+00 8.100000000000D+04
   -5.865166992188D+03 4.239082336426D-02 3.725290298462D-09 0.000000000000D+00
    2.035636523438D+04-1.951363563538D+00 9.313225746155D-10 6.000000000000D+00
   -1.413496191406D+04-2.817330360413D+00-0.000000000000D+00 0.000000000000D+00
12 21  5 28 22 45  0.0 2.326807007194D-04 3.637978807092D-12 8.100000000000D+04
    9.703872558594D+03-2.187565803528D+00 0.000000000000D+00 0.000000000000D+00
    1.482277832031D+04-1.234427452087D+00-0.000000000000D+00-1.000000000000D+00
    1.837013232422D+04 2.156160354614D+00-3.725290298462D-09 0.000000000000D+00
 1 21  5 28 22 45  0.0 8.009653538465D-05 0.000000000000D+00 8.100000000000D+04
    1.670861816406D+03 1.444492340088D-01 3.725290298462D-09 0.000000000000D+00
    2.546310498047D+04-3.572463989258D-03 9.313225746155D-10 1.000000000000D+00
    4.937597656250D+01-3.559421539307D+00-2.793967723846D-09 0.000000000000D+00
21 21  5 28 22 45  0.0-2.123992890120D-04-2.728484105319D-12 8.100000000000D+04
   -2.218983593750D+04 1.087058067322D+00-0.000000000000D+00 0.000000000000D+00
    9.454121582031D+03-4.168319702148D-01-3.725290298462D-09 4.000000000000D+00
    8.330138671875D+03 3.363930702209D+00 0.000000000000D+00 0.000000000000D+00
22 21  5 28 22 45  0.0-1.149699091911D-04-1.818989403546D-12 8.100000000000D+04
   -1.818577050781D+04-8.772354125977D-01 1.862645149231D-09 0.000000000000D+00
    1.565706396484D+04 8.044195175171D-01-9.313225746155D-10-3.000000000000D+00
   -8.523383789062D+03 3.366048812866D+00 9.313225746155D-10 0.000000000000D+00
 2 21  5 28 22 45  0.0 4.803584888577D-04 9.094947017729D-13 8.112000000000D+04
    9.343038085938D+03 1.955976486206D-01 0.000000000000D+00 0.000000000000D+00
    1.478589404297D+04 2.531599998474D+00-0.000000000000D+00-4.000000000000D+00
    1.858926171875D+04-2.122375488281D+00-3.725290298462D-09 0.000000000000D+00
 8 21  5 28 23 15  0.0-5.923025310040D-05-9.094947017729D-13 8.280000000000D+04
   -6.121125488281D+03-3.510379791260D-01 3.725290298462D-09 0.000000000000D+00
    1.627999365234D+04-2.537721633911D+00 9.313225746155D-10 6.000000000000D+00
   -1.859102050781D+04-2.101414680481D+00 0.000000000000D+00 0.000000000000D+00
12 21  5 28 23 15  0.0 2.326862886548D-04 3.637978807092D-12 8.280000000000D+04
    5.234504882812D+03-2.744954109192D+00-0.000000000000D+00 0.000000000000D+00
    1.273938623047D+04-1.044236183167D+00-9.313225746155D-10-1.000000000000D+00
    2.149233789062D+04 1.290578842163D+00-2.793967723846D-09 0.000000000000D+00
 1 21  5 28 23 15  0.0 8.009746670723D-05 0.000000000000D+00 8.280000000000D+04
    1.807702148438D+03-3.122520446777D-02 4.656612873077D-09 0.000000000000D+00
    2.466551464844D+04-8.704910278320D-01 9.313225746155D-10 1.000000000000D+00
   -6.276787597656D+03-3.424039840698D+00-1.862645149231D-09 0.000000000000D+00
 2 21  5 28 23 15  0.0 4.803612828255D-04 9.094947017729D-13 8.280000000000D+04
    9.958094726562D+03 4.553823471069D-01 1.862645149231D-09 0.000000000000D+00
    1.878201562500D+04 1.874485969543D+00 0.000000000000D+00-4.000000000000D+00
    1.410062109375D+04-2.832862854004D+00-3.725290298462D-09 0.000000000000D+00
21 21  5 28 23 15  0.0-2.124048769474D-04-2.728484105319D-12 8.280000000000D+04
   -1.973262255859D+04 1.600579261780D+00-1.862645149231D-09 0.000000000000D+00
    8.125952636719D+03-1.074010848999D+00-3.725290298462D-09 4.000000000000D+00
    1.398531201172D+04 2.878806114197D+00 0.000000000000D+00 0.000000000000D+00
22 21  5 28 23 15  0.0-1.149736344814D-04-1.818989403546D-12 8.280000000000D+04
   -1.903647802734D+04-8.180332183838D-02 9.313225746155D-10 0.000000000000D+00
    1.675738964844D+04 3.768978118896D-01-1.862645149231D-09-3.000000000000D+00
   -2.211912597656D+03 3.600942611694D+00 9.313225746155D-10 0.000000000000D+00
 8 21  5 28 23 45  0.0-5.923211574554D-05-9.094947017729D-13 8.460000000000D+04
   -7.187749023438D+03-8.418674468994D-01 2.793967723846D-09 0.000000000000D+00
    1.138414355469D+04-2.852884292603D+00 0.000000000000D+00 6.000000000000D+00
   -2.160141943359D+04-1.221551895142D+00 1.862645149231D-09 0.000000000000D+00
12 21  5 28 23 45  0.0 2.326928079128D-04 3.637978807092D-12 8.460000000000D+04
   -3.331396484375D+01-3.062455177307D+00-9.313225746155D-10 0.000000000000D+00
    1.117150244141D+04-6.750936508179D-01-1.862645149231D-09-1.000000000000D+00
    2.295667187500D+04 3.260030746460D-01-1.862645149231D-09 0.000000000000D+00
 1 21  5 28 23 45  0.0 8.009839802980D-05 0.000000000000D+00 8.460000000000D+04
    1.431458984375D+03-4.172048568726D-01 4.656612873077D-09 0.000000000000D+00
    2.240572998047D+04-1.610789299011D+00 0.000000000000D+00 1.000000000000D+00
   -1.211798779297D+04-3.024048805237D+00-9.313225746155D-10 0.000000000000D+00
 2 21  5 28 23 45  0.0 4.803640767932D-04 9.094947017729D-13 8.460000000000D+04
    1.084826123047D+04 4.929361343384D-01 2.793967723846D-09 0.000000000000D+00
    2.144100878906D+04 1.063083648682D+00-0.000000000000D+00-4.000000000000D+00
    8.522047363281D+03-3.325420379639D+00-3.725290298462D-09 0.000000000000D+00
22 21  5 28 23 45  0.0-1.149782910943D-04-1.818989403546D-12 8.460000000000D+04
   -1.856222949219D+04 5.778961181641D-01-0.000000000000D+00 0.000000000000D+00
    1.688366845703D+04-2.663240432739D-01-2.793967723846D-09-3.000000000000D+00
    4.271555175781D+03 3.555826187134D+00 9.313225746155D-10 0.000000000000D+00
24 21  5 28 23 45  0.0 4.443433135748D-05 9.094947017729D-13 8.571000000000D+04
    4.582103027344D+03-2.126457214355D+00 4.656612873077D-09 0.000000000000D+00
    1.062221337891D+04 2.276845932007D+00 1.862645149231D-09 2.000000000000D+00
   -2.272439550781D+04 6.342010498047D-01 0.000000000000D+00 0.000000000000D+00
